{"spkid": "50799335", "covariance": {"labels": ["e", "q", "tp", "node", "peri", "i", "A2"], "data": [["1.461852669965568E-13", "-1.118449063672057E-13", "-1.989495993336038E-11", "3.142497596840269E-12", "-1.010808861597929E-11", "2.964370021508081E-12", "1.080382857826519E-20"], ["-1.118449063672057E-13", "8.557232312794012E-14", "1.522067078591207E-11", "-2.402457982563849E-12", "7.731326815662581E-12", "-2.269479052172109E-12", "-8.245582733373524E-21"], ["-1.989495993336038E-11", "1.522067078591207E-11", "2.708836058322865E-9", "-4.232966814617826E-10", "1.371749926590135E-9", "-4.058427473908637E-10", "-1.492529858950566E-18"], ["3.142497596840269E-12", "-2.402457982563849E-12", "-4.232966814617826E-10", "1.756735353710857E-10", "-3.234733802522249E-10", "-3.852571672045822E-12", "2.618937947025548E-19"], ["-1.010808861597929E-11", "7.731326815662581E-12", "1.371749926590135E-9", "-3.234733802522249E-10", "8.03496239449115E-10", "-1.383162223884107E-10", "-7.868478211012174E-19"], ["2.964370021508081E-12", "-2.269479052172109E-12", "-4.058427473908637E-10", "-3.852571672045822E-12", "-1.383162223884107E-10", "1.164925001582203E-10", "1.99475330344809E-19"], ["1.080382857826519E-20", "-8.245582733373524E-21", "-1.492529858950566E-18", "2.618937947025548E-19", "-7.868478211012174E-19", "1.99475330344809E-19", "1.483970456740829E-27"]], "elements": [{"sigma": 3.8234181957583e-07, "name": "e", "title": "eccentricity", "value": ".4210348741852872", "units": null, "label": "e"}, {"value": ".441276211923968", "title": "perihelion distance", "units": "au", "name": "q", "sigma": 2.92527474142071e-07, "label": "q"}, {"sigma": 5.20464797880017e-05, "name": "tp", "units": "TDB", "title": "time of perihelion passage", "value": "2459464.620362110872", "label": "tp"}, {"label": "node", "name": "om", "sigma": 1.32541893517139e-05, "value": "332.0427891550733", "title": "longitude of the ascending node", "units": "deg"}, {"name": "w", "sigma": 2.8346009233208e-05, "units": "deg", "value": "327.2136787780496", "title": "argument of perihelion", "label": "peri"}, {"label": "i", "name": "i", "sigma": 1.07931691434083e-05, "units": "deg", "title": "inclination", "value": "4.952385731027163"}], "epoch": "2459479.5"}, "elements": [{"label": "e", "sigma": "3.796E-7", "name": "e", "units": null, "value": ".4225922281824082", "title": "eccentricity"}, {"label": "a", "value": ".7597795241914357", "title": "semi-major axis", "units": "au", "name": "a", "sigma": "1.6133E-8"}, {"sigma": "2.8099E-7", "name": "q", "units": "au", "value": ".438702602136007", "title": "perihelion distance", "label": "q"}, {"sigma": "9.957E-6", "name": "i", "title": "inclination; angle with respect to x-y ecliptic plane", "value": "5.097519493812539", "units": "deg", "label": "i"}, {"units": "deg", "title": "longitude of the ascending node", "value": "331.8974237680727", "sigma": "1.3248E-5", "name": "om", "label": "node"}, {"label": "peri", "title": "argument of perihelion", "value": "327.7364256992637", "units": "deg", "name": "w", "sigma": "3.0258E-5"}, {"units": "deg", "title": "mean anomaly", "value": "60.47683883470091", "name": "ma", "sigma": "5.0163E-5", "label": "M"}, {"name": "tp", "sigma": "3.4022E-5", "units": "TDB", "value": "2461159.863491493407", "title": "time of perihelion passage", "label": "tp"}, {"label": "period", "units": "d", "title": "sidereal orbital period", "value": "241.8966226452206", "name": "per", "sigma": "7.7047E-6"}, {"label": "n", "sigma": "4.7402E-8", "name": "n", "units": "deg/d", "value": "1.488239050480654", "title": "mean motion"}, {"label": "Q", "value": "1.080856446246864", "title": "aphelion distance", "units": "au", "sigma": "2.2951E-8", "name": "ad"}], "epoch": "2461200.5"}